OBJECT B                
1 51825U 22019B   24281.82578451  .00043530  00000+0  16514-2 0  9995
2 51825  97.4167 352.0456 0013218 197.5599 162.5184 15.26640948144384
